{"fetched_at":"2026-07-17T06:38:02.036Z","source":"https://celestrak.org/NORAD/elements/gp.php?GROUP=stations&FORMAT=JSON","constellation":"iss","records":[{"OBJECT_NAME":"ISS (ZARYA)","OBJECT_ID":"1998-067A","EPOCH":"2026-07-16T20:42:56.047680","CLASSIFICATION_TYPE":"U","MEAN_MOTION":15.49027546,"ECCENTRICITY":0.0006736,"INCLINATION":51.6311,"RA_OF_ASC_NODE":153.2312,"ARG_OF_PERICENTER":304.1301,"MEAN_ANOMALY":55.9047,"EPHEMERIS_TYPE":0,"NORAD_CAT_ID":25544,"ELEMENT_SET_NO":999,"REV_AT_EPOCH":57635,"BSTAR":0.000076099,"MEAN_MOTION_DOT":0.00003748,"MEAN_MOTION_DDOT":0}]}
