ISS (ZARYA)             
1 25544U 98067A   26197.86314870  .00003748  00000+0  76099-4 0  9998
2 25544  51.6311 153.2312 0006736 304.1301  55.9047 15.49027546576359
